IRNSS-1C                
1 40269U 14061A   23332.63349646 -.00000153  00000+0  00000+0 0  9995
2 40269   4.1717 110.1676 0017941   6.4003 261.8139  1.00269695 33341
INTELSAT 30 (IS-30)     
1 40271U 14062A   23332.51226779 -.00000141  00000+0  00000+0 0  9994
2 40271   0.0107 347.3063 0001128  12.7791 156.4369  1.00270106 33253
ARSAT 1                 
1 40272U 14062B   23332.52673955 -.00000250  00000+0  00000+0 0  9999
2 40272   0.0496  72.4612 0002366 184.3894 288.1522  1.00270962 33272
EXPRESS-AM6             
1 40277U 14064A   23332.54080927  .00000107  00000+0  00000+0 0  9999
2 40277   0.0141 285.3672 0000489 358.1121  31.4043  1.00272711 32239
GSAT-16                 
1 40332U 14078A   23327.16851260  .00000090  00000+0  00000+0 0  9995
2 40332   0.0276 260.4086 0003267 228.9036  48.3497  1.00273295 32710
DIRECTV 14              
1 40333U 14078B   23332.50978167 -.00000116  00000+0  00000+0 0  9996
2 40333   0.0169 300.6958 0000164 335.9678 234.7953  1.00272360 32722
YAMAL 401               
1 40345U 14082A   23332.63670941 -.00000219  00000+0  00000+0 0  9991
2 40345   0.0198 326.0979 0000638 339.9089  80.4371  1.00270301 32574
ASTRA 2G                
1 40364U 14089A   23332.53584896  .00000159  00000+0  00000+0 0  9993
2 40364   0.0534  35.8022 0001009 336.4159 276.0769  1.00271355 32626
FENGYUN 2G              
1 40367U 14090A   23332.64259826 -.00000294  00000+0  00000+0 0  9993
2 40367   3.2746  83.8431 0000662 240.6090  73.8035  1.00266860 32657
MUOS-3                  
1 40374U 15002A   23332.31216987 -.00000121  00000+0  00000+0 0  9999
2 40374   2.9696  30.4559 0059536 181.9749 311.4650  1.00272119 32249
INMARSAT 5-F2           
1 40384U 15005A   23332.46345242 -.00000276  00000+0  00000+0 0  9997
2 40384   0.0173 321.7006 0000484 312.3344 264.9151  1.00275410 31650
ABS-3A                  
1 40424U 15010A   23332.17147098 -.00000017  00000+0  00000+0 0  9998
2 40424   0.0061  16.7679 0001625 124.1743 344.6136  1.00269865 32037
EUTELSAT 115 WEST B     
1 40425U 15010B   23332.49938368 -.00000016  00000+0  00000+0 0  9991
2 40425   0.0129 147.9654 0000027 266.1128  77.9617  1.00270485 32054
EXPRESS-AM7             
1 40505U 15012A   23332.03675979  .00000160  00000+0  00000+0 0  9997
2 40505   0.0224  51.5865 0003327 207.1100 221.2448  1.00274353 31664
IRNSS-1D                
1 40547U 15018A   23331.71634000 -.00000282  00000+0  00000+0 0  9999
2 40547  27.8993 256.2033 0017418 182.7173 357.1830  1.00274636 31630
BEIDOU-3S IGSO-1S       
1 40549U 15019A   23332.28833891 -.00000182  00000+0  00000+0 0  9993
2 40549  50.9481 306.5703 0036688 195.9127 121.3454  1.00293519 31723
THOR 7                  
1 40613U 15022A   23332.53001844  .00000001  00000+0  00000+0 0  9991
2 40613   0.0087  56.6974 0002703 190.1125  10.5265  1.00270778 31475
TURKMENALEM52E/MONACOSAT
1 40617U 15023A   23332.54063521  .00000112  00000+0  00000+0 0  9990
2 40617   0.0192 331.4968 0003153 287.4922  54.8457  1.00273721 31507
DIRECTV 15              
1 40663U 15026A   23332.50695007 -.00000093  00000+0  00000+0 0  9999
2 40663   0.0149  29.2772 0000066 278.0702 199.4597  1.00271021 31138
SKY MEXICO-1            
1 40664U 15026B   23332.52267987 -.00000225  00000+0  00000+0 0  9991
2 40664   0.0474 112.4586 0003346 152.7618 271.3591  1.00271421 31112
METEOSAT-11 (MSG-4)     
1 40732U 15034A   23332.24551045  .00000070  00000+0  00000+0 0  9993
2 40732   0.9149  60.4903 0001979 211.6662 252.3239  1.00270075 30677
STAR ONE C4             
1 40733U 15034B   23332.52752462 -.00000256  00000+0  00000+0 0  9998
2 40733   0.0290  17.7651 0001887 254.7765 274.5267  1.00271397 30687
WGS F7 (USA 263)        
1 40746U 15036A   23332.58243896  .00000027  00000+0  00000+0 0  9991
2 40746   0.0127 340.2659 0000128 184.7121 286.9687  1.00270003 30537
INTELSAT 34 (IS-34)     
1 40874U 15039A   23332.46345170 -.00000276  00000+0  00000+0 0  9998
2 40874   0.0212 319.2530 0000880 354.7911 224.4374  1.00270255 30280
EUTELSAT 8 WEST B       
1 40875U 15039B   23332.38538661 -.00000056  00000+0  00000+0 0  9995
2 40875   0.0666 353.6439 0003124 263.3340 300.8165  1.00271041 30303
GSAT-6                  
1 40880U 15041A   23332.61419426 -.00000152  00000+0  00000+0 0  9994
2 40880   0.0301 283.6012 0003812 312.7986 134.5083  1.00272533 30255
INMARSAT 5-F3           
1 40882U 15042A   23331.70636994  .00000059  00000+0  00000+0 0  9992
2 40882   0.0203 339.2027 0000452 304.9981 216.0162  1.00269674 30219
MUOS-4                  
1 40887U 15044A   23332.63234333 -.00000087  00000+0  00000+0 0  9995
2 40887   2.8634  26.7472 0051545 356.1154 347.0743  1.00272213 30217
TJS-1                   
1 40892U 15046A   23332.58730066 -.00000148  00000+0  00000+0 0  9999
2 40892   0.0291  17.4792 0007411 314.2139 101.9505  1.00270364 30224
EXPRESS-AM8             
1 40895U 15048A   23332.31260500 -.00000101  00000+0  00000+0 0  9995
2 40895   0.0161 284.5123 0000543 338.6258 262.3724  1.00275808 30008
BEIDOU-3S IGSO-2S       
1 40938U 15053A   23332.17865383 -.00000153  00000+0  00000+0 0  9990
2 40938  50.6780 269.7610 0046646 193.6246 123.4329  1.00263504 30008
SKY MUSTER 1 (NBN1A)    
1 40940U 15054A   23331.91345543 -.00000269  00000+0  00000+0 0  9994
2 40940   0.0144 298.9470 0002008 307.1955 289.5298  1.00269923 29902
ARSAT 2                 
1 40941U 15054B   23332.52098369 -.00000215  00000+0  00000+0 0  9995
2 40941   0.0593  83.7076 0002039 164.3149 285.7035  1.00271042 29974
MORELOS 3               
1 40946U 15056A   23331.93468213 -.00000036  00000+0  00000+0 0  9996
2 40946   3.1478 346.2467 0000260 244.3527  59.3979  1.00273089 29930
APSTAR 9                
1 40982U 15059A   23332.60896632 -.00000257  00000+0  00000+0 0  9999
2 40982   0.0154   0.3928 0002893 238.0670 190.0362  1.00270070 29789
TURKSAT 4B              
1 40984U 15060A   23332.54020010  .00000124  00000+0  00000+0 0  9997
2 40984   0.0164  38.2824 0002407 208.6362  64.7141  1.00269937 29758
CHINASAT 2C (ZX 2C)     
1 41021U 15063A   23332.64631685 -.00000315  00000+0  00000+0 0  9993
2 41021   0.0142 354.5846 0002257 335.2818  73.5408  1.00269700 29652
GSAT-15                 
1 41028U 15065A   23332.63927671 -.00000249  00000+0  00000+0 0  9990
2 41028   0.0505 119.3479 0002840 112.5290 159.0443  1.00269713 29450
BADR-7 (ARABSAT-6B)     
1 41029U 15065B   23332.53541385  .00000154  00000+0  00000+0 0  9998
2 41029   0.0360 242.1016 0006894   2.2164  41.5976  1.00271587 29425
LAOSAT 1                
1 41034U 15067A   23331.98254463 -.00000334  00000+0  00000+0 0  9993
2 41034   0.0257 229.9303 0002184 339.1272 339.7987  1.00268762 29513
TELSTAR 12V             
1 41036U 15068A   23332.16912138 -.00000109  00000+0  00000+0 0  9997
2 41036   0.0200  50.6547 0002631 202.3215 219.7430  1.00271887 29283
ELEKTRO-L 2             
1 41105U 15074A   23332.16920839 -.00000108  00000+0  00000+0 0  9997
2 41105   4.3256  81.8717 0003790 174.4668 216.8998  1.00271241 29169
COSMOS 2513             
1 41121U 15075A   23332.49094292 -.00000130  00000+0  00000+0 0  9992
2 41121   0.0729 105.7101 0002972 160.2526  58.1724  1.00272548 29182
EXPRESS-AMU1            
1 41191U 15082A   23332.53741537  .00000165  00000+0  00000+0 0  9990
2 41191   0.0140 307.1406 0002889 313.8969  35.7080  1.00270757 28923
GAOFEN-4                
1 41194U 15083A   23332.64757828 -.00000326  00000+0  00000+0 0  9996
2 41194   0.0182   2.2223 0003950 223.5091 180.3985  1.00271597 29188
BELINTERSAT-1           
1 41238U 16001A   23332.54054819  .00000116  00000+0  00000+0 0  9991
2 41238   0.0466  95.4192 0001617 131.2447  86.6407  1.00269284 28893
IRNSS-1E                
1 41241U 16003A   23331.77279646 -.00000304  00000+0  00000+0 0  9998
2 41241  31.1728  76.5242 0022655 182.7365 197.1303  1.00268445 28738
EUTELSAT 9B             
1 41310U 16005A   23332.53201997  .00000071  00000+0  00000+0 0  9996
2 41310   0.0557  72.9596 0005347 180.0789  14.6801  1.00271902 28774
SES-9                   
1 41380U 16013A   23332.26526462 -.00000336  00000+0  00000+0 0  9994
2 41380   0.0126 314.6003 0000754 238.5484  77.5511  1.00269836 28094
EUTELSAT 65 WEST A      
1 41382U 16014A   23332.53112431 -.00000267  00000+0  00000+0 0  9997
2 41382   0.0651  37.5228 0002427 213.4818 302.1931  1.00272152 28202
IRNSS-1F                
1 41384U 16015A   23332.53671920  .00000169  00000+0  00000+0 0  9993
2 41384   3.1134 125.8739 0020838 180.0330 346.9643  1.00276651 28323
BEIDOU-2 IGSO-6         
1 41434U 16021A   23332.17479389 -.00000182  00000+0  00000+0 0  9997
2 41434  58.8761  47.4020 0049612 222.0615 316.1668  1.00266164 28131
IRNSS-1G                
1 41469U 16027A   23331.91127985 -.00000324  00000+0  00000+0 0  9992
2 41469   2.9984 127.3962 0001707 255.0629 141.6810  1.00275445 27831
JCSAT-2B                
1 41471U 16028A   23331.89146513 -.00000156  00000+0  00000+0 0  9994
2 41471   0.0179 356.8111 0001327 265.3754 279.2859  1.00269900 27745
THAICOM 8               
1 41552U 16031A   23332.57811758 -.00000112  00000+0  00000+0 0  9996
2 41552   0.0643  46.8580 0001910 240.5894  66.3650  1.00272410 27378
INTELSAT 31 (IS-31)     
1 41581U 16035A   23331.58009993 -.00000141  00000+0  00000+0 0  9994
2 41581   0.0131 330.8759 0002089 222.1030 347.0233  1.00272268 27346
BEIDOU-2 G7             
1 41586U 16037A   23332.54583706 -.00000346  00000+0  00000+0 0  9994
2 41586   1.4281  65.8203 0008622 314.2927 354.1203  1.00275107 27440
ABS-2A (MONGOLSAT-1)    
1 41588U 16038A   23332.63232771 -.00000073  00000+0  00000+0 0  9997
2 41588   0.0105 309.4413 0001526 272.5424 147.6560  1.00262225 27365
EUTELSAT 117 WEST B     
1 41589U 16038B   23331.57574878 -.00000002  00000+0  00000+0 0  9999
2 41589   0.0087 161.3488 0000176 315.1786  39.9856  1.00270537 27318
